{
  "type": "FeatureCollection",
  "features": [
    {
      "type": "Feature",
      "properties": {
        "norad_id": 66879,
        "name": "STARLINK-35749",
        "group": "last-30-days",
        "lat": 42.79911777859463,
        "lon": -160.78990482811108,
        "alt_km": 298.0314978884335,
        "timestamp": "2025-12-14T20:40:30.517343+00:00",
        "meta_object_name": "STARLINK-35749",
        "meta_object_id": "2025-283B",
        "meta_epoch": "2025-12-14T06:00:02.999808",
        "meta_mean_motion": 15.90758303,
        "meta_eccentricity": 0.00011244,
        "meta_inclination": 53.1555,
        "meta_ra_of_asc_node": 66.2932,
        "meta_arg_of_pericenter": 82.5207,
        "meta_mean_anomaly": 137.3847,
        "meta_ephemeris_type": 0,
        "meta_classification_type": "U",
        "meta_norad_cat_id": 66879,
        "meta_element_set_no": 999,
        "meta_rev_at_epoch": 267,
        "meta_bstar": -0.0039313849,
        "meta_mean_motion_dot": -0.01251246,
        "meta_mean_motion_ddot": 0.00045423161,
        "tle_line1": "1 66879U 25283B   25348.25003472 -.01251246  45423-3 -39314-2 0  9997",
        "tle_line2": "2 66879  53.1555  66.2932 0001124  82.5207 137.3847 15.90758303  2671"
      },
      "geometry": {
        "type": "Point",
        "coordinates": [
          -160.78990482811108,
          42.79911777859463
        ]
      }
    },
    {
      "type": "Feature",
      "properties": {
        "norad_id": 66880,
        "name": "STARLINK-35844",
        "group": "last-30-days",
        "lat": 44.28591777380714,
        "lon": -163.81120171252704,
        "alt_km": 297.96530752579474,
        "timestamp": "2025-12-14T20:40:30.517353+00:00",
        "meta_object_name": "STARLINK-35844",
        "meta_object_id": "2025-283C",
        "meta_epoch": "2025-12-14T06:00:02.999808",
        "meta_mean_motion": 15.90716225,
        "meta_eccentricity": 8.699e-05,
        "meta_inclination": 53.1558,
        "meta_ra_of_asc_node": 66.2988,
        "meta_arg_of_pericenter": 90.445,
        "meta_mean_anomaly": 126.9081,
        "meta_ephemeris_type": 0,
        "meta_classification_type": "U",
        "meta_norad_cat_id": 66880,
        "meta_element_set_no": 999,
        "meta_rev_at_epoch": 267,
        "meta_bstar": -0.0039312812,
        "meta_mean_motion_dot": -0.01248523,
        "meta_mean_motion_ddot": 0.0004522525,
        "tle_line1": "1 66880U 25283C   25348.25003472 -.01248523  45225-3 -39313-2 0  9992",
        "tle_line2": "2 66880  53.1558  66.2988 0000869  90.4450 126.9081 15.90716225  2671"
      },
      "geometry": {
        "type": "Point",
        "coordinates": [
          -163.81120171252704,
          44.28591777380714
        ]
      }
    },
    {
      "type": "Feature",
      "properties": {
        "norad_id": 66881,
        "name": "STARLINK-35860",
        "group": "last-30-days",
        "lat": 41.602120710415115,
        "lon": -158.56263729292596,
        "alt_km": 298.12955727764256,
        "timestamp": "2025-12-14T20:40:30.517363+00:00",
        "meta_object_name": "STARLINK-35860",
        "meta_object_id": "2025-283D",
        "meta_epoch": "2025-12-14T06:00:02.999808",
        "meta_mean_motion": 15.90805222,
        "meta_eccentricity": 0.00011097,
        "meta_inclination": 53.1555,
        "meta_ra_of_asc_node": 66.2889,
        "meta_arg_of_pericenter": 86.2389,
        "meta_mean_anomaly": 135.6179,
        "meta_ephemeris_type": 0,
        "meta_classification_type": "U",
        "meta_norad_cat_id": 66881,
        "meta_element_set_no": 999,
        "meta_rev_at_epoch": 267,
        "meta_bstar": -0.0039623873,
        "meta_mean_motion_dot": -0.01263999,
        "meta_mean_motion_ddot": 0.0004629006,
        "tle_line1": "1 66881U 25283D   25348.25003472 -.01263999  46290-3 -39624-2 0  9995",
        "tle_line2": "2 66881  53.1555  66.2889 0001109  86.2389 135.6179 15.90805222  2672"
      },
      "geometry": {
        "type": "Point",
        "coordinates": [
          -158.56263729292596,
          41.602120710415115
        ]
      }
    },
    {
      "type": "Feature",
      "properties": {
        "norad_id": 66882,
        "name": "STARLINK-35912",
        "group": "last-30-days",
        "lat": 40.176592101001326,
        "lon": -156.1062362536983,
        "alt_km": 298.3424795269175,
        "timestamp": "2025-12-14T20:40:30.517378+00:00",
        "meta_object_name": "STARLINK-35912",
        "meta_object_id": "2025-283E",
        "meta_epoch": "2025-12-14T06:00:02.999808",
        "meta_mean_motion": 15.90845291,
        "meta_eccentricity": 9.352e-05,
        "meta_inclination": 53.1555,
        "meta_ra_of_asc_node": 66.2846,
        "meta_arg_of_pericenter": 77.5914,
        "meta_mean_anomaly": 146.5134,
        "meta_ephemeris_type": 0,
        "meta_classification_type": "U",
        "meta_norad_cat_id": 66882,
        "meta_element_set_no": 999,
        "meta_rev_at_epoch": 267,
        "meta_bstar": -0.0039432928,
        "meta_mean_motion_dot": -0.0126051,
        "meta_mean_motion_ddot": 0.00046075321,
        "tle_line1": "1 66882U 25283E   25348.25003472 -.01260510  46075-3 -39433-2 0  9991",
        "tle_line2": "2 66882  53.1555  66.2846 0000935  77.5914 146.5134 15.90845291  2671"
      },
      "geometry": {
        "type": "Point",
        "coordinates": [
          -156.1062362536983,
          40.176592101001326
        ]
      }
    },
    {
      "type": "Feature",
      "properties": {
        "norad_id": 66883,
        "name": "STARLINK-35947",
        "group": "last-30-days",
        "lat": 38.59602710361071,
        "lon": -153.59159745563593,
        "alt_km": 298.48712820020137,
        "timestamp": "2025-12-14T20:40:30.517388+00:00",
        "meta_object_name": "STARLINK-35947",
        "meta_object_id": "2025-283F",
        "meta_epoch": "2025-12-14T06:00:02.999808",
        "meta_mean_motion": 15.90892797,
        "meta_eccentricity": 8.482e-05,
        "meta_inclination": 53.1556,
        "meta_ra_of_asc_node": 66.2799,
        "meta_arg_of_pericenter": 87.8565,
        "meta_mean_anomaly": 138.664,
        "meta_ephemeris_type": 0,
        "meta_classification_type": "U",
        "meta_norad_cat_id": 66883,
        "meta_element_set_no": 999,
        "meta_rev_at_epoch": 272,
        "meta_bstar": -0.0039678788,
        "meta_mean_motion_dot": -0.01271328,
        "meta_mean_motion_ddot": 0.00046818956,
        "tle_line1": "1 66883U 25283F   25348.25003472 -.01271328  46819-3 -39679-2 0  9999",
        "tle_line2": "2 66883  53.1556  66.2799 0000848  87.8565 138.6640 15.90892797  2722"
      },
      "geometry": {
        "type": "Point",
        "coordinates": [
          -153.59159745563593,
          38.59602710361071
        ]
      }
    },
    {
      "type": "Feature",
      "properties": {
        "norad_id": 66884,
        "name": "STARLINK-36057",
        "group": "last-30-days",
        "lat": 35.33865659954657,
        "lon": -148.9583809325359,
        "alt_km": 298.8060220954185,
        "timestamp": "2025-12-14T20:40:30.517398+00:00",
        "meta_object_name": "STARLINK-36057",
        "meta_object_id": "2025-283G",
        "meta_epoch": "2025-12-14T06:00:02.999808",
        "meta_mean_motion": 15.90983966,
        "meta_eccentricity": 8.55e-05,
        "meta_inclination": 53.1555,
        "meta_ra_of_asc_node": 66.2694,
        "meta_arg_of_pericenter": 87.7176,
        "meta_mean_anomaly": 143.5426,
        "meta_ephemeris_type": 0,
        "meta_classification_type": "U",
        "meta_norad_cat_id": 66884,
        "meta_element_set_no": 999,
        "meta_rev_at_epoch": 267,
        "meta_bstar": -0.0039782839,
        "meta_mean_motion_dot": -0.01280529,
        "meta_mean_motion_ddot": 0.00047479151,
        "tle_line1": "1 66884U 25283G   25348.25003472 -.01280529  47479-3 -39783-2 0  9992",
        "tle_line2": "2 66884  53.1555  66.2694 0000855  87.7176 143.5426 15.90983966  2671"
      },
      "geometry": {
        "type": "Point",
        "coordinates": [
          -148.9583809325359,
          35.33865659954657
        ]
      }
    },
    {
      "type": "Feature",
      "properties": {
        "norad_id": 66885,
        "name": "STARLINK-35954",
        "group": "last-30-days",
        "lat": 36.98515647952594,
        "lon": -151.21907275825288,
        "alt_km": 298.6244546017233,
        "timestamp": "2025-12-14T20:40:30.517408+00:00",
        "meta_object_name": "STARLINK-35954",
        "meta_object_id": "2025-283H",
        "meta_epoch": "2025-12-14T06:00:02.999808",
        "meta_mean_motion": 15.9093727,
        "meta_eccentricity": 8.738e-05,
        "meta_inclination": 53.1553,
        "meta_ra_of_asc_node": 66.2744,
        "meta_arg_of_pericenter": 88.0898,
        "meta_mean_anomaly": 140.8067,
        "meta_ephemeris_type": 0,
        "meta_classification_type": "U",
        "meta_norad_cat_id": 66885,
        "meta_element_set_no": 999,
        "meta_rev_at_epoch": 267,
        "meta_bstar": -0.003965798,
        "meta_mean_motion_dot": -0.01273539,
        "meta_mean_motion_ddot": 0.00046987291,
        "tle_line1": "1 66885U 25283H   25348.25003472 -.01273539  46987-3 -39658-2 0  9990",
        "tle_line2": "2 66885  53.1553  66.2744 0000873  88.0898 140.8067 15.90937270  2679"
      },
      "geometry": {
        "type": "Point",
        "coordinates": [
          -151.21907275825288,
          36.98515647952594
        ]
      }
    }
  ]
}